[{"OBJECT_NAME":"STARLINK-1422","OBJECT_ID":"2020-035AR","EPOCH":"2026-03-09T07:37:25.169952","MEAN_MOTION":15.30216632,"ECCENTRICITY":0.00012482,"INCLINATION":53.1601,"RA_OF_ASC_NODE":51.3097,"ARG_OF_PERICENTER":97.1676,"MEAN_ANOMALY":262.9467,"EPHEMERIS_TYPE":0,"CLASSIFICATION_TYPE":"U","NORAD_CAT_ID":45696,"ELEMENT_SET_NO":999,"REV_AT_EPOCH":31891,"BSTAR":0.00022631419,"MEAN_MOTION_DOT":6.353e-5,"MEAN_MOTION_DDOT":0},{"OBJECT_NAME":"COSMOS 2251 DEB","OBJECT_ID":"1993-036AWN","EPOCH":"2026-03-09T06:26:08.321568","MEAN_MOTION":15.11257706,"ECCENTRICITY":0.00842289,"INCLINATION":74.0116,"RA_OF_ASC_NODE":284.5024,"ARG_OF_PERICENTER":350.308,"MEAN_ANOMALY":9.6482,"EPHEMERIS_TYPE":0,"CLASSIFICATION_TYPE":"U","NORAD_CAT_ID":35996,"ELEMENT_SET_NO":999,"REV_AT_EPOCH":73632,"BSTAR":0.00055219842,"MEAN_MOTION_DOT":0.00010085,"MEAN_MOTION_DDOT":0}]
